OBJECT_NAME,OBJECT_ID,EPOCH,MEAN_MOTION,ECCENTRICITY,INCLINATION,RA_OF_ASC_NODE,ARG_OF_PERICENTER,MEAN_ANOMALY,EPHEMERIS_TYPE,CLASSIFICATION_TYPE,NORAD_CAT_ID,ELEMENT_SET_NO,REV_AT_EPOCH,BSTAR,MEAN_MOTION_DOT,MEAN_MOTION_DDOT
STARLINK-32585,2024-209Q,2026-06-27T18:03:39.267648,15.49402681,.00013081,53.1590,345.0788,86.7026,273.4132,0,U,61953,999,9183,.84549803E-3,.47014E-3,0
STARLINK-32574,2024-209R,2026-06-27T18:00:16.466976,15.49335859,.00009611,53.1583,345.0623,85.2119,274.9000,0,U,61954,999,9185,.14203516E-2,.79428E-3,0
STARLINK-32583,2024-209S,2026-06-27T20:10:23.810304,15.49330998,.00009405,53.1589,344.2018,95.9768,264.1349,0,U,61955,999,9186,.44235107E-3,.24249E-3,0
STARLINK-32273,2024-209T,2026-06-27T18:37:12.165600,15.30209100,.00008602,53.1577,350.9171,73.4177,286.6918,0,U,61956,999,9175,.11836927E-2,.34873E-3,0
STARLINK-32359,2024-209U,2026-06-27T19:53:56.294592,15.49328032,.0000995,53.1580,344.1335,106.8658,253.2460,0,U,61957,999,9187,.54515165E-3,.30007E-3,0
STARLINK-32566,2024-209V,2026-06-27T22:00:01.999584,15.44486416,.00010758,53.1593,343.4628,72.5924,184.3564,0,U,61958,999,585,-.28203865E-1,-.120736E-1,0
STARLINK-32499,2024-210A,2026-06-27T15:55:06.248064,15.27588180,.00011841,43.0029,278.3554,259.0632,101.0086,0,U,61959,999,9174,.51608052E-3,.1397E-3,0
STARLINK-32372,2024-210B,2026-06-27T16:06:12.267648,15.27592757,.00020071,43.0033,278.4108,278.5388,81.5236,0,U,61960,999,9160,.56082625E-3,.15209E-3,0
STARLINK-32452,2024-210C,2026-06-27T22:37:09.135840,15.27642671,.00014752,42.9995,270.0899,287.8724,72.1967,0,U,61961,999,9185,.10422082E-2,.28583E-3,0
STARLINK-32458,2024-210D,2026-06-27T22:01:34.004352,15.27581445,.00011774,42.9975,262.9763,267.3811,92.6906,0,U,61962,999,9193,.79999542E-3,.21818E-3,0
STARLINK-32487,2024-210E,2026-06-27T23:05:23.473536,15.27584571,.00010355,42.9985,277.1507,281.7684,78.3052,0,U,61963,999,9177,.86257828E-3,.23553E-3,0
STARLINK-32513,2024-210F,2026-06-27T13:54:07.947360,15.27586441,.00015667,42.9996,264.7401,281.6925,78.3751,0,U,61964,999,9188,.49841038E-3,.13481E-3,0
STARLINK-32514,2024-210G,2026-06-27T22:42:43.922880,15.27595296,.00009874,42.9989,270.1161,330.8072,29.2724,0,U,61965,999,9185,.5542916E-3,.15029E-3,0
STARLINK-32498,2024-210H,2026-06-27T22:58:42.322656,15.27589401,.00027218,43.0060,262.4089,265.4089,94.6452,0,U,61966,999,9194,.57144977E-3,.15501E-3,0
STARLINK-32518,2024-210J,2026-06-27T17:03:03.739680,15.27584601,.00010545,43.0010,271.5967,272.9467,87.1264,0,U,61967,999,9168,.45291679E-3,.12224E-3,0
STARLINK-32471,2024-210K,2026-06-27T14:37:09.100704,15.27567680,.00015678,42.9987,271.8882,262.2906,97.7768,0,U,61968,999,9181,.88508367E-3,.24164E-3,0
STARLINK-32450,2024-210L,2026-06-27T16:16:51.216384,15.27596912,.00014025,43.0004,271.5474,287.1055,72.9643,0,U,61969,999,9168,.66358677E-3,.18052E-3,0
STARLINK-32613,2024-210M,2026-06-27T15:40:30.819936,15.27595556,.00012196,42.9993,279.1362,284.7783,75.2934,0,U,61970,999,9173,.61658598E-3,.16752E-3,0
STARLINK-32610,2024-210N,2026-06-27T17:03:34.147296,15.27597239,.00014088,43.0003,278.7069,285.2524,74.8172,0,U,61971,999,9174,.7548637E-3,.20579E-3,0
STARLINK-32612,2024-210P,2026-06-27T15:34:57.714240,15.27588493,.00013653,43.0004,279.1060,251.5828,108.4876,0,U,61972,999,9169,.52765764E-3,.1429E-3,0
STARLINK-32601,2024-210Q,2026-06-27T16:00:39.420288,15.27602800,.00013042,43.0037,278.3797,266.0452,94.0251,0,U,61973,999,9170,.64076884E-3,.17424E-3,0
STARLINK-32593,2024-210R,2026-06-27T15:49:45.707520,15.27567494,.00007512,42.9989,279.1870,277.3622,82.7145,0,U,61974,999,9169,.36794076E-3,.9873E-4,0
STARLINK-32586,2024-210S,2026-06-27T22:59:50.193312,15.27593178,.00008673,42.9979,277.1203,292.6375,67.4385,0,U,61975,999,9174,.47559859E-3,.12853E-3,0
STARLINK-32611,2024-210T,2026-06-27T13:29:20.762304,15.27594855,.00014381,42.9987,279.3096,256.5332,103.5360,0,U,61976,999,9168,.84853033E-3,.23172E-3,0
STARLINK-32607,2024-210U,2026-06-27T15:23:51.361152,15.27596856,.00015321,42.9987,279.0441,288.5043,71.5642,0,U,61977,999,9173,.61552102E-3,.16723E-3,0
STARLINK-32606,2024-210V,2026-06-27T16:15:27.557856,15.27591904,.00017381,43.0014,278.4595,285.1657,74.9002,0,U,61978,999,9170,.53412177E-3,.1447E-3,0
STARLINK-32578,2024-210W,2026-06-27T17:51:27.843264,15.27598672,.00016992,43.0002,278.1002,280.1618,79.9042,0,U,61979,999,9175,.61822072E-3,.16799E-3,0
STARLINK-32517,2024-210X,2026-06-27T15:46:02.465472,15.27631385,.00028666,43.0052,279.1644,274.6025,85.4500,0,U,61980,999,9164,.13488122E-2,.37102E-3,0
STARLINK-32522,2024-210Y,2026-06-27T16:32:06.720288,15.27589067,.00015813,43.0002,278.5470,277.5065,82.5607,0,U,61981,999,9170,.45178945E-3,.12194E-3,0
STARLINK-32560,2024-210Z,2026-06-27T14:37:35.946912,15.27598896,.00017433,43.0020,278.8088,285.2591,74.8068,0,U,61982,999,9169,.71554797E-3,.19492E-3,0
STARLINK-11433 [DTC],2024-213A,2026-06-27T19:30:49.049280,15.69748793,.00009453,53.1561,218.2188,55.1656,304.9451,0,U,62008,999,9221,.11018507E-2,.135314E-2,0
STARLINK-11262 [DTC],2024-213B,2026-06-27T14:20:35.493792,15.69763658,.00013195,53.1567,219.7386,55.8220,304.2923,0,U,62009,999,9217,.10529388E-2,.129267E-2,0
STARLINK-11326 [DTC],2024-213C,2026-06-27T19:59:04.644960,15.69758587,.00014724,53.1564,218.3486,65.9444,294.1728,0,U,62010,999,9221,.13195352E-2,.162773E-2,0
STARLINK-11330 [DTC],2024-213D,2026-06-27T12:41:50.714016,15.69762425,.00010131,53.1561,220.0181,134.1977,225.9125,0,U,62011,999,9216,.1201261E-2,.147885E-2,0
STARLINK-11363 [DTC],2024-213E,2026-06-27T12:06:31.847328,15.69731767,.00011894,53.1565,219.8566,59.7908,300.3228,0,U,62012,999,9216,.11685382E-2,.143582E-2,0
STARLINK-11377 [DTC],2024-213F,2026-06-27T19:37:53.190336,15.69755946,.00014464,53.1561,218.2580,55.0846,305.0307,0,U,62013,999,9221,.10492097E-2,.128758E-2,0
STARLINK-11385 [DTC],2024-213G,2026-06-27T20:13:12.270432,15.69743202,.00013019,53.1568,218.4166,74.4059,285.7102,0,U,62014,999,9221,.98253481E-3,.120351E-2,0
STARLINK-11396 [DTC],2024-213H,2026-06-27T19:23:45.276288,15.69770443,.00013159,53.1563,218.1857,60.2922,299.8227,0,U,62015,999,9221,.13951266E-2,.172418E-2,0
STARLINK-11393 [DTC],2024-213J,2026-06-27T17:44:59.907264,15.69730066,.00013309,53.1558,218.4686,127.7560,232.3579,0,U,62016,999,9220,.79883022E-3,.97413E-3,0
STARLINK-11343 [DTC],2024-213K,2026-06-27T20:06:08.286624,15.69752862,.00011951,53.1565,218.3855,77.4360,282.6791,0,U,62017,999,9221,.10606487E-2,.130173E-2,0
STARLINK-11411 [DTC],2024-213L,2026-06-27T19:52:00.878880,15.69807777,.00013451,53.1560,218.3211,59.3904,300.7247,0,U,62018,999,9221,.14525619E-2,.179985E-2,0
STARLINK-11404 [DTC],2024-213M,2026-06-27T14:27:39.527712,15.69751657,.00012091,53.1566,219.7672,64.6483,295.4660,0,U,62019,999,9217,.95694628E-3,.117197E-2,0
STARLINK-11378 [DTC],2024-213N,2026-06-27T09:59:32.030016,15.69747582,.00013027,53.1564,220.0068,56.1267,303.9875,0,U,62020,999,9215,.1037859E-2,.127291E-2,0
STARLINK-32520,2024-213P,2026-06-27T19:57:49.410432,15.30212115,.00009977,53.1605,16.8407,81.2020,278.9094,0,U,62021,999,9001,.69003597E-3,.20141E-3,0
STARLINK-32539,2024-213Q,2026-06-27T21:49:16.252896,15.30214319,.00011596,53.1606,3.6487,84.2541,275.8592,0,U,62022,999,9020,.1011878E-2,.29743E-3,0
STARLINK-32334,2024-213R,2026-06-27T20:11:20.220000,15.30205908,.0001008,53.1582,16.1859,91.1658,268.9459,0,U,62023,999,9002,.61035818E-3,.17764E-3,0
STARLINK-32504,2024-213S,2026-06-27T22:09:42.334560,15.30220641,.00010779,53.1598,15.9951,70.2248,289.8869,0,U,62024,999,9003,.75938976E-3,.22213E-3,0
STARLINK-32493,2024-213T,2026-06-27T22:58:33.526272,15.34421047,.00011762,53.1597,14.7887,93.6658,266.4479,0,U,62025,999,9005,.75972479E-3,.25396E-3,0
STARLINK-32561,2024-213U,2026-06-27T22:18:49.060800,15.30172106,.00012595,53.1604,16.0309,83.5257,276.5887,0,U,62026,999,9003,.63704265E-3,.18539E-3,0
STARLINK-32512,2024-213V,2026-06-27T21:56:01.543200,15.30209165,.00013616,53.1585,15.9312,109.3962,250.7186,0,U,62027,999,9003,.62351759E-3,.18158E-3,0
STARLINK-32637,2024-216A,2026-06-27T21:19:17.627808,15.27595369,.00014657,43.0015,353.5892,267.6299,92.4385,0,U,62032,999,9073,.64222872E-3,.17461E-3,0
STARLINK-32582,2024-216B,2026-06-27T22:11:33.511488,15.27598700,.0001319,43.0001,0.7885,265.1822,94.8879,0,U,62033,999,9065,.72967677E-3,.19883E-3,0
STARLINK-32615,2024-216C,2026-06-27T20:40:38.674272,15.27601477,.00016569,43.0029,354.2486,269.3353,90.7308,0,U,62034,999,8956,.82404094E-3,.22498E-3,0
STARLINK-32592,2024-216D,2026-06-27T19:40:14.928672,15.27601511,.00011214,43.0018,1.7160,277.8141,82.2583,0,U,62035,999,9064,.75067627E-3,.20466E-3,0
STARLINK-32225,2024-216E,2026-06-27T19:12:02.595456,15.27593011,.00008054,43.0014,354.6486,296.6287,63.4482,0,U,62036,999,9078,.62974525E-3,.17114E-3,0
STARLINK-32595,2024-216F,2026-06-27T19:23:36.006432,15.27600736,.00015353,43.0014,1.6302,271.0634,89.0042,0,U,62037,999,9064,.79351246E-3,.21652E-3,0
STARLINK-32477,2024-216G,2026-06-27T22:00:01.999584,15.85482758,.00297666,42.9827,318.2593,335.8269,240.2879,0,U,62038,999,582,.10882444E-2,.277628E-2,.34736284E-4
STARLINK-32480,2024-216H,2026-06-27T20:49:53.776128,15.27597325,.00012887,43.0025,354.2973,279.7003,80.3703,0,U,62039,999,8956,.70653094E-3,.19241E-3,0
STARLINK-32510,2024-216J,2026-06-27T21:34:45.378912,15.27602269,.00014675,43.0028,1.4516,266.1778,93.8906,0,U,62040,999,9064,.63729017E-3,.17328E-3,0
STARLINK-32456,2024-216K,2026-06-27T20:55:26.594112,15.27599194,.00014633,43.0021,354.3265,257.1407,102.9281,0,U,62041,999,9072,.59475641E-3,.1615E-3,0
STARLINK-32509,2024-216L,2026-06-27T20:31:23.367648,15.27606837,.00014293,43.0017,354.2005,281.4413,78.6278,0,U,62042,999,9072,.86042359E-3,.2351E-3,0
STARLINK-32491,2024-216M,2026-06-27T13:38:25.846080,15.27590262,.00013119,43.0025,3.2695,258.9626,101.1078,0,U,62043,999,9059,.5415592E-3,.14675E-3,0
STARLINK-32577,2024-216N,2026-06-27T20:46:38.424864,15.27560140,.00012209,43.0013,1.2053,252.1518,107.9201,0,U,62044,999,9065,.5764424E-3,.15624E-3,0
